{"type": "FeatureCollection", "features": [ {"type": "Feature", "properties": {"norad_id": 30558, "name": "FENGYUN 1C DEB", "group": "fengyun-1c-debris", "lat": 2.0731110323117647, "lon": -43.81328825920702, "alt_km": 1053.8178799552697, "timestamp": "2025-12-21T14:40:48.193714+00:00", "meta": {"OBJECT_NAME": "FENGYUN 1C DEB", "OBJECT_ID": "1999-025AKY", "EPOCH": "2025-12-18T02:35:59.256672", "MEAN_MOTION": 13.28535877, "ECCENTRICITY": 0.04271131, "INCLINATION": 99.4659, "RA_OF_ASC_NODE": 132.6231, "ARG_OF_PERICENTER": 260.3076, "MEAN_ANOMALY": 94.9567, "EPHEMERIS_TYPE": 0, "CLASSIFICATION_TYPE": "U", "NORAD_CAT_ID": 30558, "ELEMENT_SET_NO": 999, "REV_AT_EPOCH": 90829, "BSTAR": 0.0032374201, "MEAN_MOTION_DOT": 2.396e-05, "MEAN_MOTION_DDOT": 0}, "tle": {"line1": "1 30558U 99025AKY 25352.10832473  .00002396  00000+0  32374-2 0  9991", "line2": "2 30558  99.4659 132.6231 0427113 260.3076  94.9567 13.28535877908292"}}, "geometry": {"type": "Point", "coordinates": [-43.81328825920702, 2.0731110323117647]}}, {"type": "Feature", "properties": {"norad_id": 30560, "name": "FENGYUN 1C DEB", "group": "fengyun-1c-debris", "lat": 27.010475664107556, "lon": 173.583418660604, "alt_km": 764.6984132587977, "timestamp": "2025-12-21T14:40:48.193727+00:00", "meta": {"OBJECT_NAME": "FENGYUN 1C DEB", "OBJECT_ID": "1999-025ALA", "EPOCH": "2025-12-20T18:27:30.964032", "MEAN_MOTION": 14.17034551, "ECCENTRICITY": 0.01153141, "INCLINATION": 98.664, "RA_OF_ASC_NODE": 348.3046, "ARG_OF_PERICENTER": 188.5738, "MEAN_ANOMALY": 348.9471, "EPHEMERIS_TYPE": 0, "CLASSIFICATION_TYPE": "U", "NORAD_CAT_ID": 30560, "ELEMENT_SET_NO": 999, "REV_AT_EPOCH": 97482, "BSTAR": 0.00017894249, "MEAN_MOTION_DOT": 3.41e-06, "MEAN_MOTION_DDOT": 0}, "tle": {"line1": "1 30560U 99025ALA 25354.76910838  .00000341  00000+0  17894-3 0  9999", "line2": "2 30560  98.6640 348.3046 0115314 188.5738 348.9471 14.17034551974829"}}, "geometry": {"type": "Point", "coordinates": [173.583418660604, 27.010475664107556]}}, {"type": "Feature", "properties": {"norad_id": 30561, "name": "FENGYUN 1C DEB", "group": "fengyun-1c-debris", "lat": 67.48821142808913, "lon": -24.2506163011016, "alt_km": 807.0345516043199, "timestamp": "2025-12-21T14:40:48.193737+00:00", "meta": {"OBJECT_NAME": "FENGYUN 1C DEB", "OBJECT_ID": "1999-025ALB", "EPOCH": "2025-12-20T23:08:22.687872", "MEAN_MOTION": 14.11280602, "ECCENTRICITY": 0.006076, "INCLINATION": 98.7246, "RA_OF_ASC_NODE": 356.867, "ARG_OF_PERICENTER": 90.9814, "MEAN_ANOMALY": 290.5147, "EPHEMERIS_TYPE": 0, "CLASSIFICATION_TYPE": "U", "NORAD_CAT_ID": 30561, "ELEMENT_SET_NO": 999, "REV_AT_EPOCH": 97094, "BSTAR": 0.00023971, "MEAN_MOTION_DOT": 3.98e-06, "MEAN_MOTION_DDOT": 0}, "tle": {"line1": "1 30561U 99025ALB 25354.96415148  .00000398  00000+0  23971-3 0  9991", "line2": "2 30561  98.7246 356.8670 0060760  90.9814 290.5147 14.11280602970940"}}, "geometry": {"type": "Point", "coordinates": [-24.2506163011016, 67.48821142808913]}}, {"type": "Feature", "properties": {"norad_id": 30562, "name": "FENGYUN 1C DEB", "group": "fengyun-1c-debris", "lat": -45.04192153300537, "lon": 72.20375305784717, "alt_km": 809.9206371224645, "timestamp": "2025-12-21T14:40:48.193748+00:00", "meta": {"OBJECT_NAME": "FENGYUN 1C DEB", "OBJECT_ID": "1999-025ALC", "EPOCH": "2025-12-21T03:13:27.960960", "MEAN_MOTION": 14.23106423, "ECCENTRICITY": 0.00597176, "INCLINATION": 98.7632, "RA_OF_ASC_NODE": 62.8424, "ARG_OF_PERICENTER": 241.105, "MEAN_ANOMALY": 148.5924, "EPHEMERIS_TYPE": 0, "CLASSIFICATION_TYPE": "U", "NORAD_CAT_ID": 30562, "ELEMENT_SET_NO": 999, "REV_AT_EPOCH": 97119, "BSTAR": 0.001085954, "MEAN_MOTION_DOT": 2.452e-05, "MEAN_MOTION_DDOT": 0}, "tle": {"line1": "1 30562U 99025ALC 25355.13435140  .00002452  00000+0  10860-2 0  9991", "line2": "2 30562  98.7632  62.8424 0059717 241.1050 148.5924 14.23106423971197"}}, "geometry": {"type": "Point", "coordinates": [72.20375305784717, -45.04192153300537]}}, {"type": "Feature", "properties": {"norad_id": 30564, "name": "FENGYUN 1C DEB", "group": "fengyun-1c-debris", "lat": 52.17135399897826, "lon": -4.355620910925036, "alt_km": 756.5061807714847, "timestamp": "2025-12-21T14:40:48.193758+00:00", "meta": {"OBJECT_NAME": "FENGYUN 1C DEB", "OBJECT_ID": "1999-025ALE", "EPOCH": "2025-12-20T23:20:49.892352", "MEAN_MOTION": 14.05771142, "ECCENTRICITY": 0.02029279, "INCLINATION": 98.7956, "RA_OF_ASC_NODE": 6.5254, "ARG_OF_PERICENTER": 95.8526, "MEAN_ANOMALY": 327.3967, "EPHEMERIS_TYPE": 0, "CLASSIFICATION_TYPE": "U", "NORAD_CAT_ID": 30564, "ELEMENT_SET_NO": 999, "REV_AT_EPOCH": 96411, "BSTAR": 0.00058897424, "MEAN_MOTION_DOT": 1.117e-05, "MEAN_MOTION_DDOT": 0}, "tle": {"line1": "1 30564U 99025ALE 25354.97279968  .00001117  00000+0  58897-3 0  9998", "line2": "2 30564  98.7956   6.5254 0202927  95.8526 327.3967 14.05771142964113"}}, "geometry": {"type": "Point", "coordinates": [-4.355620910925036, 52.17135399897826]}}, {"type": "Feature", "properties": {"norad_id": 30565, "name": "FENGYUN 1C DEB", "group": "fengyun-1c-debris", "lat": -16.140735705122516, "lon": -132.216563096064, "alt_km": 763.1266946888436, "timestamp": "2025-12-21T14:40:48.193768+00:00", "meta": {"OBJECT_NAME": "FENGYUN 1C DEB", "OBJECT_ID": "1999-025ALF", "EPOCH": "2025-12-14T14:17:13.563168", "MEAN_MOTION": 14.09950974, "ECCENTRICITY": 0.01431996, "INCLINATION": 98.4595, "RA_OF_ASC_NODE": 218.7147, "ARG_OF_PERICENTER": 350.7343, "MEAN_ANOMALY": 38.2595, "EPHEMERIS_TYPE": 0, "CLASSIFICATION_TYPE": "U", "NORAD_CAT_ID": 30565, "ELEMENT_SET_NO": 999, "REV_AT_EPOCH": 95953, "BSTAR": 0.0017219835, "MEAN_MOTION_DOT": 3.298e-05, "MEAN_MOTION_DDOT": 0}, "tle": {"line1": "1 30565U 99025ALF 25348.59529587  .00003298  00000+0  17220-2 0  9991", "line2": "2 30565  98.4595 218.7147 0143199 350.7343  38.2595 14.09950974959534"}}, "geometry": {"type": "Point", "coordinates": [-132.216563096064, -16.140735705122516]}}, {"type": "Feature", "properties": {"norad_id": 30566, "name": "FENGYUN 1C DEB", "group": "fengyun-1c-debris", "lat": -20.268560692209086, "lon": 47.8258174154114, "alt_km": 908.0741046411858, "timestamp": "2025-12-21T14:40:48.193778+00:00", "meta": {"OBJECT_NAME": "FENGYUN 1C DEB", "OBJECT_ID": "1999-025ALG", "EPOCH": "2025-12-21T02:59:26.123424", "MEAN_MOTION": 14.11724102, "ECCENTRICITY": 0.00684564, "INCLINATION": 99.2157, "RA_OF_ASC_NODE": 43.8886, "ARG_OF_PERICENTER": 159.0865, "MEAN_ANOMALY": 226.5228, "EPHEMERIS_TYPE": 0, "CLASSIFICATION_TYPE": "U", "NORAD_CAT_ID": 30566, "ELEMENT_SET_NO": 999, "REV_AT_EPOCH": 96501, "BSTAR": 0.00090985774, "MEAN_MOTION_DOT": 1.648e-05, "MEAN_MOTION_DDOT": 0}, "tle": {"line1": "1 30566U 99025ALG 25355.12460791  .00001648  00000+0  90986-3 0  9998", "line2": "2 30566  99.2157  43.8886 0068456 159.0865 226.5228 14.11724102965016"}}, "geometry": {"type": "Point", "coordinates": [47.8258174154114, -20.268560692209086]}}, {"type": "Feature", "properties": {"norad_id": 30567, "name": "FENGYUN 1C DEB", "group": "fengyun-1c-debris", "lat": -27.644428159425704, "lon": 161.4250032879946, "alt_km": 811.2471868973589, "timestamp": "2025-12-21T14:40:48.193788+00:00", "meta": {"OBJECT_NAME": "FENGYUN 1C DEB", "OBJECT_ID": "1999-025ALH", "EPOCH": "2025-12-20T22:37:43.632768", "MEAN_MOTION": 14.08905582, "ECCENTRICITY": 0.0109117, "INCLINATION": 98.776, "RA_OF_ASC_NODE": 345.4147, "ARG_OF_PERICENTER": 166.1245, "MEAN_ANOMALY": 250.5895, "EPHEMERIS_TYPE": 0, "CLASSIFICATION_TYPE": "U", "NORAD_CAT_ID": 30567, "ELEMENT_SET_NO": 999, "REV_AT_EPOCH": 96889, "BSTAR": 0.00015671, "MEAN_MOTION_DOT": 2.44e-06, "MEAN_MOTION_DDOT": 0}, "tle": {"line1": "1 30567U 99025ALH 25354.94286612  .00000244  00000+0  15671-3 0  9995", "line2": "2 30567  98.7760 345.4147 0109117 166.1245 250.5895 14.08905582968898"}}, "geometry": {"type": "Point", "coordinates": [161.4250032879946, -27.644428159425704]}}, {"type": "Feature", "properties": {"norad_id": 30568, "name": "FENGYUN 1C DEB", "group": "fengyun-1c-debris", "lat": 49.64355256914809, "lon": -2.9063494062408086, "alt_km": 694.7601518843321, "timestamp": "2025-12-21T14:40:48.193801+00:00", "meta": {"OBJECT_NAME": "FENGYUN 1C DEB", "OBJECT_ID": "1999-025ALJ", "EPOCH": "2025-12-21T06:39:14.261760", "MEAN_MOTION": 14.55360885, "ECCENTRICITY": 0.00159413, "INCLINATION": 98.9418, "RA_OF_ASC_NODE": 166.0582, "ARG_OF_PERICENTER": 168.8508, "MEAN_ANOMALY": 9.5909, "EPHEMERIS_TYPE": 0, "CLASSIFICATION_TYPE": "U", "NORAD_CAT_ID": 30568, "ELEMENT_SET_NO": 999, "REV_AT_EPOCH": 97783, "BSTAR": 0.0024023992, "MEAN_MOTION_DOT": 0.00010406, "MEAN_MOTION_DDOT": 0}, "tle": {"line1": "1 30568U 99025ALJ 25355.27724840  .00010406  00000+0  24024-2 0  9995", "line2": "2 30568  98.9418 166.0582 0015941 168.8508   9.5909 14.55360885977838"}}, "geometry": {"type": "Point", "coordinates": [-2.9063494062408086, 49.64355256914809]}}, {"type": "Feature", "properties": {"norad_id": 30569, "name": "FENGYUN 1C DEB", "group": "fengyun-1c-debris", "lat": 10.78630716715726, "lon": 133.59164315914938, "alt_km": 646.9513557481414, "timestamp": "2025-12-21T14:40:48.193811+00:00", "meta": {"OBJECT_NAME": "FENGYUN 1C DEB", "OBJECT_ID": "1999-025ALK", "EPOCH": "2025-12-20T09:18:18.415296", "MEAN_MOTION": 14.73970387, "ECCENTRICITY": 0.00059607, "INCLINATION": 98.7376, "RA_OF_ASC_NODE": 133.9526, "ARG_OF_PERICENTER": 62.2391, "MEAN_ANOMALY": 297.9419, "EPHEMERIS_TYPE": 0, "CLASSIFICATION_TYPE": "U", "NORAD_CAT_ID": 30569, "ELEMENT_SET_NO": 999, "REV_AT_EPOCH": 98319, "BSTAR": 0.0021051309, "MEAN_MOTION_DOT": 0.00013798, "MEAN_MOTION_DDOT": 0}, "tle": {"line1": "1 30569U 99025ALK 25354.38771314  .00013798  00000+0  21051-2 0  9999", "line2": "2 30569  98.7376 133.9526 0005960  62.2391 297.9419 14.73970387983197"}}, "geometry": {"type": "Point", "coordinates": [133.59164315914938, 10.78630716715726]}}]}